EUTELSAT 33F            
1 29270U 06032A   26173.86584722  .00000158  00000+0  00000+0 0  9994
2 29270   1.6771  82.1915 0003987   7.5288 166.1179  1.00273953 47368
JCSAT-3A                
1 29272U 06033A   26173.84116894 -.00000342  00000+0  00000+0 0  9992
2 29272   0.0063 353.9943 0002059  96.1601 251.6824  1.00271580 47797
KOREASAT 5 (MUGUNGWHA 5)
1 29349U 06034A   26173.83830892 -.00000355  00000+0  00000+0 0  9992
2 29349   1.8001  82.9310 0001582  51.2534 191.6826  1.00271723 41379
DIRECTV 9S              
1 29494U 06043A   26173.65331714 -.00000112  00000+0  00000+0 0  9993
2 29494   2.4357  80.8443 0005216  15.8344 308.1447  1.00271538 51434
OPTUS D1                
1 29495U 06043B   26173.79365273 -.00000182  00000+0  00000+0 0  9993
2 29495   3.0500  79.5935 0003600   3.9016 265.1657  1.00271321 72171
BADR-4                  
1 29526U 06051A   26173.82276881  .00000158  00000+0  00000+0 0  9999
2 29526   2.0202  81.0689 0004944   2.0476 158.5308  1.00274520 51326
WILDBLUE-1              
1 29643U 06054A   26173.68239051 -.00000048  00000+0  00000+0 0  9993
2 29643   2.8181  80.4191 0001562   7.8155 317.0756  1.00272190 53840
SKYNET 5A               
1 30794U 07007B   26173.84361977 -.00000271  00000+0  00000+0 0  9990
2 30794   5.3142  73.6729 0003734  22.3685 213.8981  1.00272898 70755
ANIK F3                 
1 31102U 07009A   26173.68239051  .00000001  00000+0  00000+0 0  9995
2 31102   1.2126  83.7973 0002737   9.2661 304.7437  1.00273791 46616
ASTRA 1L                
1 31306U 07016A   26173.81097389 -.00000182  00000+0  00000+0 0  9991
2 31306   1.3371  81.5476 0005507  15.3114  81.5893  1.00270885 45041
GALAXY 17 (G-17)        
1 31307U 07016B   26173.58513416 -.00000205  00000+0  00000+0 0  9996
2 31307   2.9864  79.8385 0004487  16.3469 300.2203  1.00273968 69851
INTELSAT 11 (IS-11)     
1 32253U 07044B   26173.83588225 -.00000085  00000+0  00000+0 0  9992
2 32253   3.5809  78.6071 0002714  85.1003 149.2391  0.99048639 68508
WGS F1 (USA 195)        
1 32258U 07046A   26173.30843144 -.00000266  00000+0  00000+0 0  9996
2 32258   0.0356  87.1513 0000477 352.5552 259.3063  1.00275383 52381
SKYNET 5B               
1 32294U 07056B   26173.82086214  .00000140  00000+0  00000+0 0  9991
2 32294   5.2659  73.4377 0003498  19.7888 138.3916  1.00269045 68254
ASTRA 4A                
1 32299U 07057A   26173.38910336  .00000035  00000+0  00000+0 0  9992
2 32299   0.0286 301.1665 0002572 155.5547 318.7484  1.00274998 51699
HORIZONS-2              
1 32388U 07063B   26173.80109385 -.00000251  00000+0  00000+0 0  9990
2 32388   2.6174  80.5632 0004044   2.3944  42.6107  1.00272323 67872
THURAYA-3               
1 32404U 08001A   26173.68732450 -.00000003  00000+0  00000+0 0  9998
2 32404   5.9990  35.8135 0001705 146.5428  46.7272  1.00008348 67549
THOR 5                  
1 32487U 08006A   26173.81574878 -.00000006  00000+0  00000+0 0  9990
2 32487   0.0467 253.7600 0002608 203.1084 107.0454  1.00273373 67370
AMC-14                  
1 32708U 08011A   26173.11630836 -.00000071  00000+0  00000+0 0  9994
2 32708  24.0100  20.4593 0045272   7.4641 351.2925  1.00355768 68213
DIRECTV 11              
1 32729U 08013A   26173.65366381 -.00000123  00000+0  00000+0 0  9997
2 32729   0.0374 183.5738 0000333 254.1692 329.2283  1.00271880 45647
ICO G1                  
1 32763U 08016A   26173.65487715 -.00000173  00000+0  00000+0 0  9998
2 32763   5.5316  36.1233 0002400  38.9580 338.6528  1.00268837 66608
VINASAT-1               
1 32767U 08018A   26173.63100532 -.00000326  00000+0  00000+0 0  9991
2 32767   0.0106 336.9171 0001595 121.1055 171.8937  1.00271385 66644
STAR ONE C2             
1 32768U 08018B   26173.58912084 -.00000275  00000+0  00000+0 0  9992
2 32768   1.2556  82.4264 0002736  15.2174 320.2097  1.00272367 66701
AMOS-3                  
1 32794U 08022A   26173.82441549  .00000128  00000+0  00000+0 0  9992
2 32794   0.4707  86.1666 0002282  67.5872  97.1235  1.00480098 82396
GALAXY 18 (G-18)        
1 32951U 08024A   26173.68239051  .00000028  00000+0  00000+0 0  9995
2 32951   0.0168 317.3415 0002953 135.8802 300.2983  1.00273153 45902
ZHONGXING-9             
1 33051U 08028A   26173.89816758 -.00000246  00000+0  00000+0 0  9992
2 33051   0.7847  85.2951 0003916 346.5149 254.9876  1.00272019 66095
SKYNET 5C               
1 33055U 08030A   26173.66981296 -.00000139  00000+0  00000+0 0  9995
2 33055   3.8037  76.9811 0004251  21.1167  36.0897  1.00271840 66010
TURKSAT 3A              
1 33056U 08030B   26173.46758205  .00000148  00000+0  00000+0 0  9995
2 33056   0.0693  81.9533 0005203 354.1103  44.8951  1.00273691 52415
ECHOSTAR 11             
1 33207U 08035A   26173.65158380 -.00000056  00000+0  00000+0 0  9996
2 33207   1.0202  84.1312 0002665 348.8449 322.6176  1.00271369 51260
SUPERBIRD-C2            
1 33274U 08038A   26173.84281561 -.00000304  00000+0  00000+0 0  9998
2 33274   2.3764  81.2006 0006276  27.4938 241.7326  1.00271280105781
INMARSAT 4-F3           
1 33278U 08039A   26173.65392381 -.00000140  00000+0  00000+0 0  9993
2 33278   4.2969  31.6334 0002717  65.2835 311.3301  1.00271275 46604
NIMIQ 4                 
1 33373U 08044A   26173.58582749 -.00000218  00000+0  00000+0 0  9992
2 33373   0.0136  85.2251 0001925   3.2102 311.2234  1.00270450 65038
