OBJECT_NAME,OBJECT_ID,EPOCH,MEAN_MOTION,ECCENTRICITY,INCLINATION,RA_OF_ASC_NODE,ARG_OF_PERICENTER,MEAN_ANOMALY,EPHEMERIS_TYPE,CLASSIFICATION_TYPE,NORAD_CAT_ID,ELEMENT_SET_NO,REV_AT_EPOCH,BSTAR,MEAN_MOTION_DOT,MEAN_MOTION_DDOT
EUTELSAT 33F,2006-032A,2026-06-22T20:46:49.199808,1.00273953,.0003987,1.6771,82.1915,7.5288,166.1179,0,U,29270,999,4736,0,.158E-5,0
JCSAT-3A,2006-033A,2026-06-22T20:11:16.996416,1.00271580,.00020596,0.0063,353.9943,96.1601,251.6824,0,U,29272,999,4779,0,-.342E-5,0
KOREASAT 5 (MUGUNGWHA 5),2006-034A,2026-06-22T20:07:09.890688,1.00271723,.00015823,1.8001,82.9310,51.2534,191.6826,0,U,29349,999,4137,0,-.355E-5,0
DIRECTV 9S,2006-043A,2026-06-22T15:40:46.600896,1.00271538,.00052161,2.4357,80.8443,15.8344,308.1447,0,U,29494,999,5143,0,-.112E-5,0
OPTUS D1,2006-043B,2026-06-22T19:02:51.595872,1.00271321,.00036002,3.0500,79.5935,3.9016,265.1657,0,U,29495,999,7217,0,-.182E-5,0
BADR-4,2006-051A,2026-06-22T19:44:47.225184,1.00274520,.00049445,2.0202,81.0689,2.0476,158.5308,0,U,29526,999,5132,0,.158E-5,0
WILDBLUE-1,2006-054A,2026-06-22T16:22:38.540064,1.00272190,.00015628,2.8181,80.4191,7.8155,317.0756,0,U,29643,999,5384,0,-.48E-6,0
SKYNET 5A,2007-007B,2026-06-22T20:14:48.748128,1.00272898,.00037342,5.3142,73.6729,22.3685,213.8981,0,U,30794,999,7075,0,-.271E-5,0
ANIK F3,2007-009A,2026-06-22T16:22:38.540064,1.00273791,.00027374,1.2126,83.7973,9.2661,304.7437,0,U,31102,999,4661,0,.1E-7,0
ASTRA 1L,2007-016A,2026-06-22T19:27:48.144096,1.00270885,.00055076,1.3371,81.5476,15.3114,81.5893,0,U,31306,999,4504,0,-.182E-5,0
GALAXY 17 (G-17),2007-016B,2026-06-22T14:02:35.591424,1.00273968,.0004487,2.9864,79.8385,16.3469,300.2203,0,U,31307,999,6985,0,-.205E-5,0
INTELSAT 11 (IS-11),2007-044B,2026-06-22T20:03:40.226400,0.99048639,.00027145,3.5809,78.6071,85.1003,149.2391,0,U,32253,999,6850,0,-.85E-6,0
WGS F1 (USA 195),2007-046A,2026-06-22T07:24:08.476416,1.00275383,.0000477,0.0356,87.1513,352.5552,259.3063,0,U,32258,999,5238,0,-.266E-5,0
SKYNET 5B,2007-056B,2026-06-22T19:42:02.488896,1.00269045,.00034986,5.2659,73.4377,19.7888,138.3916,0,U,32294,999,6825,0,.14E-5,0
ASTRA 4A,2007-057A,2026-06-22T09:20:18.530304,1.00274998,.00025722,0.0286,301.1665,155.5547,318.7484,0,U,32299,999,5169,0,.35E-6,0
HORIZONS-2,2007-063B,2026-06-22T19:13:34.508640,1.00272323,.00040444,2.6174,80.5632,2.3944,42.6107,0,U,32388,999,6787,0,-.251E-5,0
THURAYA-3,2008-001A,2026-06-22T16:29:44.836800,1.00008348,.00017056,5.9990,35.8135,146.5428,46.7272,0,U,32404,999,6754,0,-.3E-7,0
THOR 5,2008-006A,2026-06-22T19:34:40.694592,1.00273373,.00026088,0.0467,253.7600,203.1084,107.0454,0,U,32487,999,6737,0,-.6E-7,0
AMC-14,2008-011A,2026-06-22T02:47:29.042304,1.00355768,.00452724,24.0100,20.4593,7.4641,351.2925,0,U,32708,999,6821,0,-.71E-6,0
DIRECTV 11,2008-013A,2026-06-22T15:41:16.553184,1.00271880,.00003331,0.0374,183.5738,254.1692,329.2283,0,U,32729,999,4564,0,-.123E-5,0
ICO G1,2008-016A,2026-06-22T15:43:01.385760,1.00268837,.00024003,5.5316,36.1233,38.9580,338.6528,0,U,32763,999,6660,0,-.173E-5,0
VINASAT-1,2008-018A,2026-06-22T15:08:38.859648,1.00271385,.00015957,0.0106,336.9171,121.1055,171.8937,0,U,32767,999,6664,0,-.326E-5,0
STAR ONE C2,2008-018B,2026-06-22T14:08:20.040576,1.00272367,.00027368,1.2556,82.4264,15.2174,320.2097,0,U,32768,999,6670,0,-.275E-5,0
AMOS-3,2008-022A,2026-06-22T19:47:09.498336,1.00480098,.00022827,0.4707,86.1666,67.5872,97.1235,0,U,32794,999,8239,0,.128E-5,0
GALAXY 18 (G-18),2008-024A,2026-06-22T16:22:38.540064,1.00273153,.00029537,0.0168,317.3415,135.8802,300.2983,0,U,32951,999,4590,0,.28E-6,0
ZHONGXING-9,2008-028A,2026-06-22T21:33:21.678912,1.00272019,.00039162,0.7847,85.2951,346.5149,254.9876,0,U,33051,999,6609,0,-.246E-5,0
SKYNET 5C,2008-030A,2026-06-22T16:04:31.839744,1.00271840,.00042511,3.8037,76.9811,21.1167,36.0897,0,U,33055,999,6601,0,-.139E-5,0
TURKSAT 3A,2008-030B,2026-06-22T11:13:19.089120,1.00273691,.00052034,0.0693,81.9533,354.1103,44.8951,0,U,33056,999,5241,0,.148E-5,0
ECHOSTAR 11,2008-035A,2026-06-22T15:38:16.840320,1.00271369,.00026654,1.0202,84.1312,348.8449,322.6176,0,U,33207,999,5126,0,-.56E-6,0
SUPERBIRD-C2,2008-038A,2026-06-22T20:13:39.268704,1.00271280,.00062764,2.3764,81.2006,27.4938,241.7326,0,U,33274,999,10578,0,-.304E-5,0
INMARSAT 4-F3,2008-039A,2026-06-22T15:41:39.017184,1.00271275,.00027175,4.2969,31.6334,65.2835,311.3301,0,U,33278,999,4660,0,-.14E-5,0
NIMIQ 4,2008-044A,2026-06-22T14:03:35.495136,1.00270450,.00019253,0.0136,85.2251,3.2102,311.2234,0,U,33373,999,6503,0,-.218E-5,0
